NORAD_CAT_ID,OBJECT_NAME,OBJECT_TYPE,EPOCH,MEAN_MOTION,ECCENTRICITY,INCLINATION,RA_OF_ASC_NODE,ARG_OF_PERICENTER,MEAN_ANOMALY,BSTAR,MEAN_MOTION_DOT,MEAN_MOTION_DDOT,TLE_LINE0,TLE_LINE1,TLE_LINE2,SEMIMAJOR_AXIS,PERIOD,APOGEE,PERIGEE,DECAYED
49434.0,STARLINK-3134,PAYLOAD,2022-02-17 14:00:01,15.08852083,0.0002126,53.2188,38.0527,44.7415,212.289,-0.0016524,-0.00026499,0.0,0 STARLINK-3134,1 49434U 21104AC  22048.58334491 -.00026499  00000-0 -16524-2 0  9997,2 49434  53.2188  38.0527 0002126  44.7415 212.2890 15.08852083  3607,6917.843000000003,95.437,541.179,538.238,0.0
49434.0,STARLINK-3134,PAYLOAD,2022-02-17 22:00:00,15.08816121,0.0001947,53.2189,36.5552,50.9384,217.6622,0.0023168,0.00036753,0.0,0 STARLINK-3134,1 49434U 21104AC  22048.91667824  .00036753  00000-0  23168-2 0  9997,2 49434  53.2189  36.5552 0001947  50.9384 217.6622 15.08816121  3596,6917.953,95.439,541.165,538.471,0.0
49434.0,STARLINK-3134,PAYLOAD,2022-02-18 14:00:01,15.08853525,0.0002102,53.2187,33.5638,46.894,244.8655,-0.0019774,-0.00031633,0.0,0 STARLINK-3134,1 49434U 21104AC  22049.58334491 -.00031633  00000-0 -19774-2 0  9994,2 49434  53.2187  33.5638 0002102  46.8940 244.8655 15.08853525 16278,6917.839,95.437,541.158,538.25,0.0
49434.0,STARLINK-3134,PAYLOAD,2022-02-18 22:00:00,15.08830871,0.0002026,53.2189,32.0663,52.8491,250.5087,0.0020758,0.00032895,0.0,0 STARLINK-3134,1 49434U 21104AC  22049.91667824  .00032895  00000-0  20758-2 0  9993,2 49434  53.2189  32.0663 0002026  52.8491 250.5087 15.08830871  3587,6917.908,95.438,541.175,538.372,0.0
49434.0,STARLINK-3134,PAYLOAD,2022-02-19 06:00:00,15.0884467,0.0002231,53.2189,30.5719,48.7048,266.2548,0.00021788,3.181e-05,0.0,0 STARLINK-3134,1 49434U 21104AC  22050.25001157  .00003181  00000-0  21788-3 0  9994,2 49434  53.2189  30.5719 0002231  48.7048 266.2548 15.08844670 16371,6917.866,95.437,541.274,538.188,0.0
49434.0,STARLINK-3134,PAYLOAD,2022-02-19 14:00:01,15.08871245,0.0002165,53.2188,29.0749,48.1963,278.3608,-0.0021066999999999,-0.0003369,0.0,0 STARLINK-3134,1 49434U 21104AC  22050.58334491 -.00033690  00000-0 -21067-2 0  9999,2 49434  53.2188  29.0749 0002165  48.1963 278.3608 15.08871245  3580,6917.785,95.436,541.148,538.1519999999998,0.0
49434.0,STARLINK-3134,PAYLOAD,2022-02-19 22:00:00,15.08855351,0.0002068,53.2191,27.5775,53.00100000000001,285.1789,-0.00047718,-7.878e-05,0.0,0 STARLINK-3134,1 49434U 21104AC  22050.91667824 -.00007878  00000-0 -47718-3 0  9996,2 49434  53.2191  27.5775 0002068  53.0010 285.1789 15.08855351  3560,6917.833000000001,95.437,541.129,538.268,0.0
49434.0,STARLINK-3134,PAYLOAD,2022-02-20 14:00:01,15.08875772,0.0002142,53.2191,24.5858,46.6844,314.7,-0.0047405,-0.00075024,0.0,0 STARLINK-3134,1 49434U 21104AC  22051.58334491 -.00075024  00000-0 -47405-2 0  9991,2 49434  53.2191  24.5858 0002142  46.6844 314.7000 15.08875772 16574,6917.771,95.435,541.118,538.154,0.0
49434.0,STARLINK-3134,PAYLOAD,2022-02-20 22:00:00,15.08824029,0.000206,53.2195,23.0888,51.0324,321.9564,0.0017648,0.00027898,0.0,0 STARLINK-3134,1 49434U 21104AC  22051.91667824  .00027898  00000-0  17648-2 0  9997,2 49434  53.2195  23.0888 0002060  51.0324 321.9564 15.08824029  3577,6917.929,95.439,541.219,538.369,0.0
49434.0,STARLINK-3134,PAYLOAD,2022-02-21 06:00:00,15.0882962,0.0002263,53.2195,21.5943,46.7103,337.8664,0.00063967,9.904e-05,0.0,0 STARLINK-3134,1 49434U 21104AC  22052.25001157  .00009904  00000-0  63967-3 0  9990,2 49434  53.2195  21.5943 0002263  46.7103 337.8664 15.08829620 16677,6917.9119999999975,95.438,541.3430000000002,538.212,0.0
49434.0,STARLINK-3134,PAYLOAD,2022-02-21 22:00:00,15.08820594,0.000208,53.22,18.6001,50.2959,357.4494,0.0012612,0.0001983,0.0,0 STARLINK-3134,1 49434U 21104AC  22052.91667824  .00019830  00000-0  12612-2 0  9991,2 49434  53.2200  18.6001 0002080  50.2959 357.4494 15.08820594  3577,6917.94,95.439,541.244,538.366,0.0
49434.0,STARLINK-3134,PAYLOAD,2022-02-22 04:00:00,15.08830756,0.0002251,53.2199,17.4794,46.8947,279.5353,-0.00055766,-9.151e-05,0.0,0 STARLINK-3134,1 49434U 21104AC  22053.16667824 -.00009151  00000-0 -55766-3 0  9994,2 49434  53.2199  17.4794 0002251  46.8947 279.5353 15.08830756 16818,6917.909000000002,95.438,541.331,538.216,0.0
49434.0,STARLINK-3134,PAYLOAD,2022-02-22 14:00:01,15.08848277,0.0002193,53.22,15.6082,47.9159,22.9894,-0.0014182,-0.00022794,0.0,0 STARLINK-3134,1 49434U 21104AC  22053.58334491 -.00022794  00000-0 -14182-2 0  9995,2 49434  53.2200  15.6082 0002193  47.9159  22.9894 15.08848277  3591,6917.855,95.437,541.237,538.203,0.0
49434.0,STARLINK-3134,PAYLOAD,2022-02-22 22:00:00,15.08848405,0.0002152,53.2203,14.1114,52.2293,30.2723,0.00088482,0.00013825,0.0,0 STARLINK-3134,1 49434U 21104AC  22053.91667824  .00013825  00000-0  88482-3 0  9999,2 49434  53.2203  14.1114 0002152  52.2293  30.2723 15.08848405 16924,6917.855,95.437,541.2080000000002,538.231,0.0
49434.0,STARLINK-3134,PAYLOAD,2022-02-23 14:00:01,15.08845116,0.0002128,53.2201,11.1193,48.6478,57.0781,-0.0012911,-0.00020781,0.0,0 STARLINK-3134,1 49434U 21104AC  22054.58334491 -.00020781  00000-0 -12911-2 0  9998,2 49434  53.2201  11.1193 0002128  48.6478  57.0781 15.08845116 17022,6917.865,95.437,541.202,538.258,0.0
49434.0,STARLINK-3134,PAYLOAD,2022-02-23 22:00:00,15.08858501,0.0002061,53.2203,9.6226,51.2325,66.0773,-0.002624,-0.00041829,0.0,0 STARLINK-3134,1 49434U 21104AC  22054.91667824 -.00041829  00000-0 -26240-2 0  9990,2 49434  53.2203   9.6226 0002061  51.2325  66.0773 15.08858501  3602,6917.824000000001,95.436,541.115,538.263,0.0
49434.0,STARLINK-3134,PAYLOAD,2022-02-24 14:00:01,15.08829841,0.0002034,53.2199,6.6304,48.4117,92.0671,-0.00064702,-0.00010568,0.0,0 STARLINK-3134,1 49434U 21104AC  22055.58334491 -.00010568  00000-0 -64702-3 0  9997,2 49434  53.2199   6.6304 0002034  48.4117  92.0671 15.08829841  3596,6917.911,95.438,541.184,538.369,0.0
49434.0,STARLINK-3134,PAYLOAD,2022-02-24 22:00:00,15.08835801,0.000204,53.2193,5.1344,51.6954,100.3534,-0.00049296,-8.124e-05,0.0,0 STARLINK-3134,1 49434U 21104AC  22055.91667824 -.00008124  00000-0 -49296-3 0  9999,2 49434  53.2193   5.1344 0002040  51.6954 100.3534 15.08835801  3583,6917.893,95.438,541.169,538.347,0.0
49434.0,STARLINK-3134,PAYLOAD,2022-02-25 06:00:00,15.08816866,0.0002203,53.2198,3.6393,47.0891,116.5621,0.002426,0.00038509,0.0,0 STARLINK-3134,1 49434U 21104AC  22056.25001157  .00038509  00000-0  24260-2 0  9999,2 49434  53.2198   3.6393 0002203  47.0891 116.5621 15.08816866 17272,6917.951,95.439,541.34,538.2919999999998,0.0
49434.0,STARLINK-3134,PAYLOAD,2022-02-25 14:00:01,15.08844654,0.0002064,53.2195,2.1414,50.8835,124.3552,-0.00026529,-4.509e-05,0.0,0 STARLINK-3134,1 49434U 21104AC  22056.58334491 -.00004509  00000-0 -26529-3 0  9991,2 49434  53.2195   2.1414 0002064  50.8835 124.3552 15.08844654  3565,6917.866,95.437,541.159,538.303,0.0
49434.0,STARLINK-3134,PAYLOAD,2022-02-25 22:00:00,15.08863165,0.0002069,53.2196,0.6452,54.2199,132.612,-0.00092527,-0.00014993,0.0,0 STARLINK-3134,1 49434U 21104AC  22056.91667824 -.00014993  00000-0 -92527-3 0  9996,2 49434  53.2196   0.6452 0002069  54.2199 132.6120 15.08863165 17372,6917.81,95.436,541.106,538.243,0.0
49434.0,STARLINK-3134,PAYLOAD,2022-02-26 14:00:01,15.08832506,0.0002029,53.2192,357.6524,51.0231,159.0239,0.00022065,3.225e-05,0.0,0 STARLINK-3134,1 49434U 21104AC  22057.58334491  .00003225  00000-0  22065-3 0  9995,2 49434  53.2192 357.6524 0002029  51.0231 159.0239 15.08832506  3599,6917.903,95.438,541.172,538.365,0.0
49434.0,STARLINK-3134,PAYLOAD,2022-02-26 22:00:00,15.08851789,0.0002064,53.2194,356.1563,53.8922,167.7327,-0.00081593,-0.00013255,0.0,0 STARLINK-3134,1 49434U 21104AC  22057.91667824 -.00013255  00000-0 -81593-3 0  9998,2 49434  53.2194 356.1563 0002064  53.8922 167.7327 15.08851789  3604,6917.844,95.437,541.137,538.2819999999998,0.0
49434.0,STARLINK-3134,PAYLOAD,2022-02-27 06:00:00,15.08824817,0.0002184,53.2193,354.6615,47.4346,185.7972,0.00031601,4.743e-05,0.0,0 STARLINK-3134,1 49434U 21104AC  22058.25001157  .00004743  00000-0  31601-3 0  9992,2 49434  53.2193 354.6615 0002184  47.4346 185.7972 15.08824817 17575,6917.927,95.439,541.303,538.281,0.0
49434.0,STARLINK-3134,PAYLOAD,2022-02-27 14:00:01,15.08813708,0.0002022,53.2193,353.1634,50.1838,194.6295,0.00066406,0.00010289,0.0,0 STARLINK-3134,1 49434U 21104AC  22058.58334491  .00010289  00000-0  66406-3 0  9991,2 49434  53.2193 353.1634 0002022  50.1838 194.6295 15.08813708  3612,6917.9609999999975,95.439,541.225,538.427,0.0
49434.0,STARLINK-3134,PAYLOAD,2022-02-27 22:00:00,15.08839988,0.0002093,53.2194,351.6675,52.8968,203.4802,-0.00097239,-0.00015731,0.0,0 STARLINK-3134,1 49434U 21104AC  22058.91667824 -.00015731  00000-0 -97239-3 0  9994,2 49434  53.2194 351.6675 0002093  52.8968 203.4802 15.08839988  3602,6917.88,95.438,541.193,538.298,0.0
49434.0,STARLINK-3134,PAYLOAD,2022-02-28 14:00:01,15.08836386,0.0002357,53.2175,348.6769,53.129,226.4099,7.706e-05,9.38e-06,0.0,0 STARLINK-3134,1 49434U 21104AC  22059.58334491  .00000938  00000-0  77060-4 0  9991,2 49434  53.2175 348.6769 0002357  53.1290 226.4099 15.08836386 17771,6917.891,95.438,541.387,538.126,0.0
49434.0,STARLINK-3134,PAYLOAD,2022-02-28 22:00:00,15.08865827,0.0002213,53.2199,347.1787,53.4304,237.7319,-0.0011032,-0.00017816,0.0,0 STARLINK-3134,1 49434U 21104AC  22059.91667824 -.00017816  00000-0 -11032-2 0  9997,2 49434  53.2199 347.1787 0002213  53.4304 237.7319 15.08865827 17830,6917.801,95.436,541.197,538.136,0.0
49434.0,STARLINK-3134,PAYLOAD,2022-03-01 14:00:01,15.0882351,0.0002133,53.2202,344.1857,51.9184,262.4869,0.0018842,0.00029813,0.0,0 STARLINK-3134,1 49434U 21104AC  22060.58334491  .00029813  00000-0  18842-2 0  9997,2 49434  53.2202 344.1857 0002133  51.9184 262.4869 15.08823510  3585,6917.931,95.439,541.271,538.32,0.0
